M 325.19539 +/- 0.00033             (J2000 ecliptic)
n   0.08267717 +/- 2e-8             Peri.  307.85955 +/- 0.00027
a   5.21849945 +/- 8.4e-7           Node    44.36593 +/- 0.00012
e   0.1399506 +/- 9.94e-7           Incl.   22.05269 +/- 0.000034

M 325.19538 +/- 0.00032             (J2000 ecliptic)
n   0.08267717 +/- 1.94e-8          Peri.  307.85954 +/- 0.00026
a   5.21849941 +/- 8.17e-7          Node    44.36596 +/- 0.00012
e   0.1399505 +/- 9.66e-7           Incl.   22.05270 +/- 0.000033

M 325.19539 +/- 0.00032             (J2000 ecliptic)
n   0.08267717 +/- 1.98e-8          Peri.  307.85952 +/- 0.00027
a   5.21849948 +/- 8.35e-7          Node    44.36595 +/- 0.00012
e   0.1399506 +/- 9.87e-7           Incl.   22.05270 +/- 0.000034

M 325.19537 +/- 0.00029             (J2000 ecliptic)
n   0.08267717 +/- 1.8e-8           Peri.  307.85960 +/- 0.00024
a   5.21849933 +/- 7.56e-7          Node    44.36592 +/- 0.00011
e   0.1399504 +/- 8.94e-7           Incl.   22.05269 +/- 0.000030

M 325.19539 +/- 0.00033             (J2000 ecliptic)
n   0.08267717 +/- 2e-8             Peri.  307.85954 +/- 0.00027
a   5.21849946 +/- 8.42e-7          Node    44.36593 +/- 0.00012
e   0.1399506 +/- 9.96e-7           Incl.   22.05269 +/- 0.000034

M 325.19539 +/- 0.00032             (J2000 ecliptic)
n   0.08267717 +/- 1.99e-8          Peri.  307.85953 +/- 0.00027
a   5.21849948 +/- 8.37e-7          Node    44.36594 +/- 0.00012
e   0.1399506 +/- 9.9e-7            Incl.   22.05269 +/- 0.000034

M 325.19539 +/- 0.00033             (J2000 ecliptic)
n   0.08267717 +/- 1.99e-8          Peri.  307.85954 +/- 0.00027
a   5.21849947 +/- 8.39e-7          Node    44.36593 +/- 0.00012
e   0.1399506 +/- 9.92e-7           Incl.   22.05269 +/- 0.000034

M 325.19539 +/- 0.00032             (J2000 ecliptic)
n   0.08267717 +/- 1.99e-8          Peri.  307.85954 +/- 0.00027
a   5.21849947 +/- 8.38e-7          Node    44.36593 +/- 0.00012
e   0.1399506 +/- 9.91e-7           Incl.   22.05269 +/- 0.000034

M 325.19539 +/- 0.00033             (J2000 ecliptic)
n   0.08267716 +/- 2.55e-8          Peri.  307.85955 +/- 0.00027
a   5.21849968 +/- 1.07e-6          Node    44.36593 +/- 0.00013
e   0.1399506 +/- 9.89e-7           Incl.   22.05269 +/- 0.000033

M 325.19535 +/- 0.00035             (J2000 ecliptic)
n   0.08267716 +/- 2.45e-8          Peri.  307.85958 +/- 0.00029
a   5.21849965 +/- 1.03e-6          Node    44.36594 +/- 0.00012
e   0.1399507 +/- 1.04e-6           Incl.   22.05269 +/- 0.000034

M 325.19530 +/- 0.00034             (J2000 ecliptic)
n   0.08267718 +/- 2.33e-8          Peri.  307.85957 +/- 0.00027
a   5.21849897 +/- 9.82e-7          Node    44.36593 +/- 0.00012
e   0.1399512 +/- 1.18e-6           Incl.   22.05269 +/- 0.000033

M 325.19538 +/- 0.0006              (J2000 ecliptic)
n   0.08267717 +/- 2.07e-8          Peri.  307.85954 +/- 0.00047
a   5.21849945 +/- 8.72e-7          Node    44.36594 +/- 0.00013
e   0.1399506 +/- 1.44e-6           Incl.   22.05269 +/- 0.000033

M 325.19538 +/- 0.00033             (J2000 ecliptic)
n   0.08267717 +/- 2.01e-8          Peri.  307.85956 +/- 0.00027
a   5.21849950 +/- 8.45e-7          Node    44.36593 +/- 0.00013
e   0.1399505 +/- 9.92e-7           Incl.   22.05269 +/- 0.000033

M 325.19540 +/- 0.00033             (J2000 ecliptic)
n   0.08267717 +/- 2.02e-8          Peri.  307.85953 +/- 0.00027
a   5.21849941 +/- 8.5e-7           Node    44.36594 +/- 0.00013
e   0.1399506 +/- 9.97e-7           Incl.   22.05269 +/- 0.000034

M 325.19539 +/- 0.00033             (J2000 ecliptic)
n   0.08267717 +/- 2.02e-8          Peri.  307.85953 +/- 0.00027
a   5.21849943 +/- 8.49e-7          Node    44.36594 +/- 0.00013
e   0.1399506 +/- 9.96e-7           Incl.   22.05269 +/- 0.000034

M 325.19538 +/- 0.00033             (J2000 ecliptic)
n   0.08267717 +/- 2.01e-8          Peri.  307.85955 +/- 0.00027
a   5.21849944 +/- 8.45e-7          Node    44.36593 +/- 0.00012
e   0.1399506 +/- 1.04e-6           Incl.   22.05270 +/- 0.000034

M 325.19534 +/- 0.00033             (J2000 ecliptic)
n   0.08267717 +/- 1.99e-8          Peri.  307.85958 +/- 0.00027
a   5.21849939 +/- 8.38e-7          Node    44.36593 +/- 0.00012
e   0.1399508 +/- 1.03e-6           Incl.   22.05270 +/- 0.000034

M 325.19550 +/- 0.00031             (J2000 ecliptic)
n   0.08267716 +/- 1.88e-8          Peri.  307.85946 +/- 0.00025
a   5.21849961 +/- 7.91e-7          Node    44.36595 +/- 0.00011
e   0.1399501 +/- 9.64e-7           Incl.   22.05269 +/- 0.000032

M 325.19540 +/- 0.00033             (J2000 ecliptic)
n   0.08267717 +/- 2e-8             Peri.  307.85953 +/- 0.00027
a   5.21849946 +/- 8.41e-7          Node    44.36594 +/- 0.00012
e   0.1399506 +/- 1.01e-6           Incl.   22.05270 +/- 0.000034

M 325.19540 +/- 0.00033             (J2000 ecliptic)
n   0.08267717 +/- 2e-8             Peri.  307.85954 +/- 0.00027
a   5.21849946 +/- 8.4e-7           Node    44.36594 +/- 0.00012
e   0.1399506 +/- 1e-6              Incl.   22.05270 +/- 0.000034
